P/2011 A2 (Scotti),e,4.4750,54.6765,94.5184,3.105773,0.1800734,0.49946596,318.2858,04/14.0/2021,2000,g 16.5,4.0
# From MPC 84021
P/2011 C2 (Gibbs),e,10.8849,12.1246,160.9346,7.413987,0.0488232,0.26890341,165.6021,04/14.0/2021,2000,g  9.0,4.0
# From MPC 79866
P/2011 FR143 (Lemmon),e,15.9831,190.9510,350.1021,6.858211,0.0548767,0.45077168,202.8790,04/14.0/2021,2000,g 14.0,2.0
# From MPC 82317
P/2011 JB15 (Spacewatch-Boattini),e,19.1471,153.5863,111.0353,7.356374,0.0493979,0.31770707,166.3965,04/14.0/2021,2000,g  9.0,4.0
# From MPEC 2021-F20
C/2011 KP36 (Spacewatch),e,18.9856,173.2832,180.6941,38.97592,0.0040505,0.87477832,7.2179,04/14.0/2021,2000,g  4.5,4.0
# From MPC 87913
P/2011 N1 (ASH),e,35.7216,77.5968,330.3357,6.249229,0.0630906,0.54394197,205.1744,04/14.0/2021,2000,g 11.5,4.0
# From MPC 75714
P/2011 NO1 (Elenin),e,15.2484,295.7972,263.8041,5.524474,0.0759045,0.77472127,283.5586,04/14.0/2021,2000,g 15.0,4.0
# From MPC 82318
P/2011 P1 (McNaught),e,5.6593,4.2378,348.9232,7.466683,0.0483073,0.32731692,189.3355,04/14.0/2021,2000,g  9.0,4.0
# From MPC 77806
P/2011 Q3 (McNaught),e,6.0572,32.0262,310.9863,4.970322,0.0889462,0.53266963,316.1988,04/14.0/2021,2000,g 13.5,4.0
# From MPC 98558
P/2011 S1 (Gibbs),e,2.6845,218.8850,192.4564,8.585986,0.0391759,0.20045645,95.5049,04/14.0/2021,2000,g  8.0,4.0
# From MPC 79022
P/2011 UA134 (Spacewatch-PANSTARRS),e,10.4414,40.4095,32.4364,5.605712,0.0742605,0.62931851,255.5782,04/14.0/2021,2000,g 17.5,4.0
# From MPC 77406
P/2011 V1 (Boattini),e,7.3761,46.8351,269.2779,3.855329,0.1302003,0.55060368,120.4051,04/14.0/2021,2000,g 15.5,4.0
# From MPC 82718
P/2011 W1 (PANSTARRS),e,3.7186,161.7896,282.7416,4.660838,0.0979508,0.28722463,330.6429,04/14.0/2021,2000,g 11.5,4.0
# From MPC 79342
P/2011 Y2 (Boattini),e,6.3716,309.3668,131.9175,6.239724,0.0632348,0.70938389,210.3839,04/14.0/2021,2000,g 15.0,4.0
# From MPC 94669
P/2012 B1 (PANSTARRS),e,7.6136,36.2079,162.5589,6.528929,0.0590801,0.40945930,166.9875,04/14.0/2021,2000,g  9.0,4.0
# From MPC 78590
P/2012 C3 (PANSTARRS),e,9.0920,135.3677,344.9542,9.748681,0.0323806,0.63011148,359.9758,10/06.0/2011,2000,g 13.0,4.0
# From MPC 84931
P/2012 F2 (PANSTARRS),e,14.7191,227.0427,33.2828,6.329912,0.0618882,0.54244358,180.9017,04/14.0/2021,2000,g 12.0,4.0
# From MPC 79344
P/2012 G1 (PANSTARRS),e,11.6925,282.5440,286.1149,4.172871,0.1156250,0.38072240,359.9500,06/01.0/2012,2000,g 15.0,4.0
# From MPC 80898
P/2012 K3 (Gibbs),e,13.1946,125.8085,172.1775,3.625496,0.1427752,0.42338825,86.4479,04/14.0/2021,2000,g 15.0,4.0
# From MPC 88326
P/2012 NJ (La Sagra),e,84.6637,315.5447,338.3434,8.460760,0.0400488,0.84724125,129.2185,04/14.0/2021,2000,g 14.5,4.0
# From MPC 81470
P/2012 O1 (McNaught),e,7.4318,91.9785,238.2343,3.540547,0.1479444,0.59458006,114.4296,04/14.0/2021,2000,g 17.5,4.0
# From MPC 80899
P/2012 O2 (McNaught),e,24.4859,120.6794,183.4262,3.623765,0.1428776,0.53273737,101.2799,04/14.0/2021,2000,g 17.0,4.0
# From MPC 82720
P/2012 O3 (McNaught),e,16.6156,336.4128,344.7268,4.573701,0.1007633,0.64699361,318.6109,04/14.0/2021,2000,g 16.5,4.0
# From MPC 82720
P/2012 S2 (La Sagra),e,8.6861,51.1900,312.4848,4.413412,0.1063022,0.69129261,338.6587,04/14.0/2021,2000,g 17.0,4.0
# From MPC 82320
P/2012 T2 (PANSTARRS),e,12.5580,73.7243,310.4431,5.735755,0.0717494,0.16115630,209.1674,04/14.0/2021,2000,g 10.0,4.0
# From MPC 80900
P/2012 T3 (PANSTARRS),e,9.5677,114.4056,195.4651,6.151809,0.0645951,0.61725364,211.1085,04/14.0/2021,2000,g 15.0,4.0
# From MPC 87914
P/2012 TK8 (Tenagra),e,6.3402,288.9648,128.0029,4.127227,0.1175483,0.27421382,337.0749,04/14.0/2021,2000,g 13.0,4.0
# From MPC 82720
P/2012 U2 (PANSTARRS),e,10.7530,185.2903,228.2804,7.140180,0.0516583,0.49826793,159.0143,04/14.0/2021,2000,g 12.5,4.0
# From MPC 84024
P/2012 US27 (Siding Spring),e,39.3398,49.1770,0.8073,5.166444,0.0839299,0.64758917,251.9795,04/14.0/2021,2000,g 13.5,4.0
# From MPC 82721
P/2012 WA34 (Lemmon-PANSTARRS),e,6.0974,94.2369,354.0879,4.742735,0.0954247,0.34536900,282.8614,04/14.0/2021,2000,g 13.5,4.0
# From MPC 82721
P/2013 AL76 (Catalina),e,144.8376,145.9768,27.1000,6.497173,0.0595138,0.68621225,181.4214,04/14.0/2021,2000,g 16.0,4.0
# From MPEC 2021-F20
C/2013 C2 (Tenagra),e,21.3443,247.5355,309.5269,15.98924,0.0154157,0.42706676,31.4590,04/14.0/2021,2000,g  4.0,4.0
# From MPC 91612
P/2013 G1 (Kowalski),e,5.4655,221.3886,51.4283,6.889321,0.0545054,0.51287937,146.0021,04/14.0/2021,2000,g 11.0,4.0
# From MPC 84025
P/2013 G4 (PANSTARRS),e,5.9163,339.6394,214.6903,4.439875,0.1053532,0.40953030,314.5412,04/14.0/2021,2000,g 15.0,4.0
# From MPC 91613
P/2013 J2 (McNaught),e,15.5322,289.4197,37.7475,6.223012,0.0634897,0.65761624,176.8637,04/14.0/2021,2000,g 13.0,4.0
# From MPC 86229
P/2013 N3 (PANSTARRS),e,2.1735,17.4791,323.8804,7.391184,0.0490493,0.59322416,128.2238,04/14.0/2021,2000,g 13.0,4.0
# From MPC 85834
P/2013 N5 (PANSTARRS),e,23.4330,187.1619,176.8928,6.798689,0.0555989,0.73204484,158.0125,04/14.0/2021,2000,g 17.0,4.0
# From MPC 85834
P/2013 P1 (PANSTARRS),e,18.7228,160.6040,138.1390,8.570874,0.0392795,0.60595424,116.4606,04/14.0/2021,2000,g 12.0,4.0
# From MPC 94671
P/2013 R3 (Catalina-PANSTARRS),e,0.8653,342.0008,11.1666,3.033764,0.1865226,0.27519521,160.2341,04/14.0/2021,2000,g 14.0,4.0
# From unp
P/2013 R3-A (Catalina-PANSTARRS),e,0.8647,341.9677,11.2056,3.033622,0.1865357,0.27516468,160.2681,04/14.0/2021,2000,g  9.0,4.0
# From MPEC 2015-M77
P/2013 R3-B (Catalina-PANSTARRS),e,0.8659,342.0235,11.1405,3.033840,0.1865155,0.27521023,160.2158,04/14.0/2021,2000,g  9.0,4.0
# From MPC 85835
P/2013 T1 (PANSTARRS),e,24.2837,10.0845,346.0927,5.860581,0.0694693,0.62383008,195.3239,04/14.0/2021,2000,g 16.5,4.0
# From MPC 86643
P/2013 T2 (Schwartz),e,9.4563,0.8102,345.5029,3.489961,0.1511726,0.50122316,75.6402,04/14.0/2021,2000,g 16.0,4.0
# From MPC 91613
P/2013 W1 (PANSTARRS),e,4.6954,117.8478,1.2839,3.490284,0.1511517,0.59278407,32.6044,04/14.0/2021,2000,g 17.5,4.0
# From MPC111767
C/2013 X1 (PANSTARRS),h,04/19.4351/2016,163.1944,131.5712,165.1981,1.000515,1.325072,2000,10.5,2.0
# From MPC101095
P/2013 YG46 (Spacewatch),e,7.8558,48.8558,242.5237,3.276077,0.1662161,0.45490197,254.9363,04/14.0/2021,2000,g 10.0,4.0
# From MPC 89728
P/2014 A2 (Hill),e,24.5377,106.6296,356.2133,5.926790,0.0683085,0.64533473,187.1094,04/14.0/2021,2000,g 15.0,4.0
# From MPC 92981
P/2014 A3 (PANSTARRS),e,13.6869,230.1025,213.2381,4.625142,0.0990870,0.24731479,287.2527,04/14.0/2021,2000,g 12.0,4.0
# From MPEC 2021-FB5
C/2014 B1 (Schwartz),e,28.4087,161.4172,345.7482,6583,0.0000018,0.99854893,0.0000,09/08.2768/2017,2000,g  4.0,4.0
# From MPC102095
P/2014 C1 (TOTAS),e,2.6876,167.7630,23.9951,3.039099,0.1860316,0.44809884,136.0781,04/14.0/2021,2000,g 15.5,4.0
# From MPC 94280
C/2014 F3 (Sheppard-Trujillo),e,6.5982,326.7443,3.4915,15.55677,0.0160629,0.63427201,359.4439,04/14.0/2021,2000,g  6.0,4.0
# From MPC 98560
P/2014 L2 (NEOWISE),e,5.1987,149.3479,182.6562,6.303696,0.0622746,0.64820788,153.2233,04/14.0/2021,2000,g 12.0,4.0
# From MPC 90769
P/2014 L3 (Hill),e,6.2773,115.4712,178.6532,8.169316,0.0422110,0.77378114,104.6132,04/14.0/2021,2000,g 16.0,4.0
# From MPC 91614
P/2014 M4 (PANSTARRS),e,3.3363,263.2575,147.9548,5.873742,0.0692360,0.59421938,159.3669,04/14.0/2021,2000,g 15.0,4.0
# From MPC103844
P/2014 MG4 (Spacewatch-PANSTARRS),e,9.3713,311.7341,299.1019,5.012037,0.0878380,0.25959960,250.9045,04/14.0/2021,2000,g  9.5,4.0
# From MPC 98560
P/2014 O3 (PANSTARRS),e,7.8058,87.6438,204.6262,7.565200,0.0473667,0.38603940,120.7874,04/14.0/2021,2000,g 10.5,4.0
# From MPEC 2020-AA5
C/2014 OE4 (PANSTARRS),h,12/12.9578/2016,81.3054,240.4195,65.8885,1.003144,6.249448,2000,11.0,2.0
# From MPEC 2021-F20
C/2014 R3 (PANSTARRS),e,90.9257,334.0958,113.4390,16394,0.0000005,0.99955634,0.0000,08/08.9783/2016,2000,g  6.5,4.0
# From MPC 91615
P/2014 R5 (Lemmon-PANSTARRS),e,1.0883,126.5606,213.7315,4.056283,0.1206457,0.41365617,300.6403,04/14.0/2021,2000,g 15.0,4.0
# From MPC 91616
P/2014 U4 (PANSTARRS),e,6.4292,11.8905,347.7392,3.506029,0.1501346,0.46489097,8.9320,04/14.0/2021,2000,g 18.0,4.0
# From MPC 95211
P/2014 V1 (PANSTARRS),e,22.5207,166.2006,177.5786,5.480965,0.0768101,0.53429985,174.5241,04/14.0/2021,2000,g 14.0,4.0
# From MPC 93586
P/2014 W1 (PANSTARRS),e,8.8381,246.2454,152.2245,4.462133,0.1045659,0.38873966,257.5170,04/14.0/2021,2000,g 15.5,4.0
# From MPC110493
C/2014 W2 (PANSTARRS),e,82.0800,69.9947,84.9363,554.7004,0.0000754,0.99517859,0.0000,03/07.7589/2016,2000,g  7.5,4.0
# From MPC105542
P/2014 W4 (PANSTARRS),e,15.2741,33.3591,67.8079,6.597667,0.0581592,0.35212322,112.3763,04/14.0/2021,2000,g 11.0,4.0
# From MPC115880
C/2014 W10 (PANSTARRS),e,82.8890,43.0933,43.6484,807.8480,0.0000429,0.99062487,0.0000,03/04.2319/2016,2000,g  8.0,4.0
# From MPC 93587
P/2014 W12 (Gibbs),e,8.5137,299.2906,36.8772,3.520025,0.1492401,0.52425497,350.1105,04/14.0/2021,2000,g 15.0,4.0
# From MPC 94281
P/2014 X1 (Elenin),e,26.0084,61.5112,33.9592,6.209188,0.0637018,0.70859429,146.2210,04/14.0/2021,2000,g 15.0,4.0
# From MPC 92275
P/2015 A3 (PANSTARRS),e,172.5305,277.1873,249.2630,7.808555,0.0451698,0.85119165,101.5110,04/14.0/2021,2000,g 20.0,4.0
# From MPC 99270
P/2015 B1 (PANSTARRS),e,18.0333,353.0008,188.8657,9.498625,0.0336677,0.36804714,68.6238,04/14.0/2021,2000,g  8.5,4.0
# From MPC108592
C/2015 B2 (PANSTARRS),e,104.9866,341.8443,284.7234,13372,0.0000006,0.99974783,0.0000,05/05.2182/2016,2000,g  9.5,4.0
# From MPC109141
P/2015 B4 (Lemmon-PANSTARRS),e,1.7601,266.0259,227.4529,8.530435,0.0395592,0.56015594,89.4507,04/14.0/2021,2000,g 11.0,4.0
# From MPC101096
P/2015 C1 (TOTAS-Gibbs),e,13.8941,348.8161,178.2987,6.583656,0.0583450,0.56026622,127.1395,04/14.0/2021,2000,g 12.5,4.0
# From MPC119995
C/2015 D3 (PANSTARRS),h,05/02.2453/2016,128.5494,157.0642,2.9408,1.003480,8.142450,2000,5.5,4.0
# From MPC109141
P/2015 D5 (Kowalski),e,20.5032,74.0600,39.8623,8.968918,0.0366939,0.48884531,94.3299,04/14.0/2021,2000,g  9.0,4.0
# From MPC 96866
